      2.10          N: GNSS NAV DATA                        RINEX VERSION / TYPE
fic2rin                                 09/27/2019 00:19:17 PGM / RUN BY / DATE
                                                            END OF HEADER
17 19  9 26 21 59 44.0 1.331102102995e-04 7.275957614183e-12 0.000000000000e+00
    1.200000000000e+01 8.850000000000e+01 3.587292282265e-09 2.392855151427e+00
    4.649162292480e-06 1.314630475827e-02 1.173652708530e-05 5.153577514648e+03
    4.247840000000e+05 1.527369022369e-07 1.746351391231e-01-1.098960638046e-07
    9.845605490017e-01 1.601562500000e+02-1.702611192499e+00-7.420666243392e-09
    3.146559638267e-10 1.000000000000e+00 2.072000000000e+03 0.000000000000e+00
    2.400000000000e+00 0.000000000000e+00-1.117587089539e-08 1.200000000000e+01
    4.176000000000e+05 4.000000000000e+00
 1 19  9 26 22  0  0.0-1.421533524990e-04-1.296029950026e-11 0.000000000000e+00
    2.100000000000e+01 3.256250000000e+01 4.662694219930e-09 2.895916367798e-01
    1.659616827965e-06 9.115762193687e-03 1.862645149231e-06 5.153640483856e+03
    4.248000000000e+05-5.215406417847e-08 1.172891549127e+00 1.676380634308e-07
    9.768099314830e-01 3.541562500000e+02 7.650497555760e-01-8.627859384975e-09
    2.232235838726e-10 1.000000000000e+00 2.072000000000e+03 0.000000000000e+00
    2.400000000000e+00 0.000000000000e+00 5.587935447693e-09 2.100000000000e+01
    4.176000000000e+05 4.000000000000e+00
 2 19  9 26 22  0  0.0-3.135227598250e-04-8.071765478235e-12 0.000000000000e+00
    9.800000000000e+01 4.187500000000e+01 5.073782771990e-09 5.643076525131e-01
    2.088025212288e-06 1.917128125206e-02 2.356246113777e-06 5.153540426254e+03
    4.248000000000e+05-2.346932888031e-07 1.101612139916e+00-2.980232238770e-08
    9.559337247624e-01 3.315937500000e+02-1.712020590884e+00-9.018589946185e-09
    1.882221259213e-10 1.000000000000e+00 2.072000000000e+03 0.000000000000e+00
    2.400000000000e+00 0.000000000000e+00-2.048909664154e-08 9.800000000000e+01
    4.176000000000e+05 4.000000000000e+00
 5 19  9 26 22  0  0.0-1.767650246620e-06-3.410605131648e-13 0.000000000000e+00
    4.400000000000e+01-1.242812500000e+02 4.800914263064e-09-3.117145496022e+00
   -6.545335054398e-06 5.915238405578e-03 8.016824722290e-06 5.153777437210e+03
    4.248000000000e+05-5.029141902924e-08 2.186690198298e+00-1.154839992523e-07
    9.505897698681e-01 2.222500000000e+02 7.897748295432e-01-8.226771249473e-09
   -3.335853237391e-10 1.000000000000e+00 2.072000000000e+03 0.000000000000e+00
    2.400000000000e+00 0.000000000000e+00-1.117587089539e-08 4.400000000000e+01
    4.176000000000e+05 4.000000000000e+00
 7 19  9 26 22  0  0.0-1.147049479187e-04-8.071765478235e-12 0.000000000000e+00
    3.300000000000e+01 2.959375000000e+01 5.393438944095e-09-3.560499014447e-01
    1.551583409309e-06 1.317272428423e-02 4.000961780548e-06 5.153719726562e+03
    4.248000000000e+05 0.000000000000e+00-1.961234977698e+00 1.750886440277e-07
    9.544013575731e-01 2.971562500000e+02-2.427322724375e+00-8.800723728326e-09
    5.785955293977e-11 1.000000000000e+00 2.072000000000e+03 0.000000000000e+00
    2.400000000000e+00 0.000000000000e+00-1.117587089539e-08 3.300000000000e+01
    4.176000000000e+05 4.000000000000e+00
 4 19  9 26 22  0  0.0 2.057710662484e-05-4.865796654485e-11 0.000000000000e+00
    5.400000000000e+01 1.030625000000e+02 4.059454806873e-09 2.590406362446e+00
    5.187466740608e-06 1.472308544908e-02 1.305714249611e-05 5.153685049057e+03
    4.248000000000e+05-2.793967723846e-08 1.424530084825e-02-2.067536115646e-07
    9.590838555208e-01 1.235000000000e+02 6.818761552903e-01-7.715678531838e-09
    2.150089559860e-10 1.000000000000e+00 2.072000000000e+03 0.000000000000e+00
    2.400000000000e+00 6.300000000000e+01-5.587935447693e-09 5.400000000000e+01
    4.176000000000e+05 4.000000000000e+00
16 19  9 26 22  0  0.0-7.778266444802e-05-3.524291969370e-12 0.000000000000e+00
    5.400000000000e+01-3.584375000000e+01 3.891590671801e-09-2.849175716771e+00
   -1.925975084305e-06 1.080485736020e-02 1.147389411926e-05 5.153644470215e+03
    4.248000000000e+05 1.490116119385e-08-8.395615086153e-01-1.750886440277e-07
    9.815721189673e-01 1.679687500000e+02 5.810213452769e-01-7.617460154934e-09
   -6.986005280875e-10 1.000000000000e+00 2.072000000000e+03 0.000000000000e+00
    2.400000000000e+00 0.000000000000e+00-1.071020960808e-08 5.400000000000e+01
    4.176000000000e+05 4.000000000000e+00
 9 19  9 26 22  0  0.0-4.134792834520e-05-9.777068044059e-12 0.000000000000e+00
    4.300000000000e+01 1.134375000000e+01 4.618406660890e-09 2.950254588780e+00
    6.929039955139e-07 1.444818917662e-03 1.289881765842e-05 5.153597667694e+03
    4.248000000000e+05 1.471489667892e-07-3.036513998242e+00-4.284083843231e-08
    9.530647302858e-01 1.256250000000e+02 1.667073070731e+00-8.004976296537e-09
    4.796628370253e-10 1.000000000000e+00 2.072000000000e+03 0.000000000000e+00
    2.400000000000e+00 0.000000000000e+00 1.396983861923e-09 4.300000000000e+01
    4.176000000000e+05 4.000000000000e+00
 6 19  9 26 22  0  0.0-7.059192284942e-05-1.273292582482e-11 0.000000000000e+00
    6.600000000000e+01 3.840625000000e+01 4.545903640848e-09 6.396327104698e-01
    2.026557922363e-06 1.392246689647e-03 1.627951860428e-06 5.153660200119e+03
    4.248000000000e+05-1.676380634308e-08 1.164615353418e+00 3.725290298462e-09
    9.764360125478e-01 3.515625000000e+02-1.158624541500e+00-8.462138196308e-09
    2.796545058755e-10 1.000000000000e+00 2.072000000000e+03 0.000000000000e+00
    2.400000000000e+00 0.000000000000e+00 4.190951585770e-09 6.600000000000e+01
    4.176000000000e+05 4.000000000000e+00
11 19  9 26 22  0  0.0-4.955702461302e-04 1.114131009672e-11 0.000000000000e+00
    3.500000000000e+01 1.079062500000e+02 5.917389340161e-09-4.750266340346e-01
    5.539506673813e-06 1.664857694414e-02 4.870817065239e-06 5.153729164124e+03
    4.248000000000e+05-2.849847078323e-07 7.140830560598e-01-8.754432201385e-08
    9.106805703011e-01 2.623437500000e+02 1.950033746047e+00-9.270028991059e-09
    6.310977163245e-10 1.000000000000e+00 2.072000000000e+03 0.000000000000e+00
    2.400000000000e+00 0.000000000000e+00-1.210719347000e-08 3.500000000000e+01
    4.176000000000e+05 4.000000000000e+00
10 19  9 26 22  0  0.0-6.997352465987e-05-1.580247044330e-11 0.000000000000e+00
    1.760000000000e+02-1.303750000000e+02 4.436970531918e-09-1.692012972755e+00
   -6.884336471558e-06 4.850119818002e-03 9.069219231606e-06 5.153669765472e+03
    4.248000000000e+05 5.960464477539e-08 2.212045092146e+00-9.313225746155e-09
    9.637242945737e-01 2.034687500000e+02-2.736950378912e+00-8.114623720935e-09
   -3.146559638267e-10 1.000000000000e+00 2.072000000000e+03 0.000000000000e+00
    2.400000000000e+00 0.000000000000e+00 1.862645149231e-09 1.760000000000e+02
    4.176000000000e+05 4.000000000000e+00
 8 19  9 26 22  0  0.0-7.870141416788e-06-1.364242052659e-12 0.000000000000e+00
    1.420000000000e+02 1.119062500000e+02 3.966593795982e-09 2.666922548783e+00
    5.770474672318e-06 4.471810883842e-03 1.227110624313e-05 5.153566974640e+03
    4.248000000000e+05 3.539025783539e-08 1.054526152447e-01 5.029141902924e-08
    9.705886514503e-01 1.466250000000e+02-2.338722645986e-01-7.820682905692e-09
    2.521533603424e-10 1.000000000000e+00 2.072000000000e+03 0.000000000000e+00
    2.400000000000e+00 0.000000000000e+00 5.122274160385e-09 1.420000000000e+02
    4.176000000000e+05 4.000000000000e+00
27 19  9 26 22  0  0.0-6.850576028228e-05-1.239186531166e-11 0.000000000000e+00
    4.100000000000e+01 1.162187500000e+02 3.758013679211e-09 2.480274063907e+00
    5.953013896942e-06 7.202546927147e-03 1.224316656590e-05 5.153659263611e+03
    4.248000000000e+05-3.725290298462e-08 1.177669578551e-01-1.005828380585e-07
    9.789240368240e-01 1.507500000000e+02 5.111644863841e-01-7.704249484344e-09
    3.246563803842e-10 1.000000000000e+00 2.072000000000e+03 0.000000000000e+00
    2.400000000000e+00 0.000000000000e+00 1.396983861923e-09 4.100000000000e+01
    4.176000000000e+05 4.000000000000e+00
25 19  9 26 22  0  0.0-1.362664625049e-05-1.250555214938e-12 0.000000000000e+00
    5.700000000000e+01-4.559375000000e+01 4.322322899241e-09-1.395439515554e+00
   -2.443790435791e-06 8.430640911683e-03 1.004151999950e-05 5.153654466629e+03
    4.248000000000e+05 2.551823854446e-07-9.243143099497e-01 8.381903171539e-08
    9.685811401723e-01 1.911875000000e+02 8.958721147495e-01-7.893900241202e-09
   -7.293160932284e-10 1.000000000000e+00 2.072000000000e+03 0.000000000000e+00
    2.400000000000e+00 0.000000000000e+00 5.587935447693e-09 5.700000000000e+01
    4.176000000000e+05 4.000000000000e+00
15 19  9 26 22  0  0.0-2.841143868864e-04 2.728484105319e-12 0.000000000000e+00
    3.800000000000e+01 9.468750000000e+00 5.185930300527e-09 1.584348513149e+00
    6.165355443954e-07 1.176919252612e-02 1.341477036476e-05 5.153581504822e+03
    4.248000000000e+05-3.203749656677e-07-3.119630531556e+00 4.656612873077e-08
    9.285811402060e-01 1.080000000000e+02 8.127015500188e-01-8.366777081277e-09
    3.421571093598e-10 1.000000000000e+00 2.072000000000e+03 0.000000000000e+00
    2.400000000000e+00 0.000000000000e+00-1.071020960808e-08 3.800000000000e+01
    4.176000000000e+05 4.000000000000e+00
19 19  9 26 22  0  0.0-2.618264406919e-04 5.229594535194e-12 0.000000000000e+00
    3.600000000000e+01 1.030000000000e+02 3.739084319299e-09-1.126018818541e+00
    5.638226866722e-06 9.362436714582e-03 1.134537160397e-05 5.153653657913e+03
    4.248000000000e+05-9.499490261078e-08 2.206268989788e-01 1.527369022369e-07
    9.824960453611e-01 1.748750000000e+02 1.507716551475e+00-7.821397221160e-09
    4.043025551100e-10 1.000000000000e+00 2.072000000000e+03 0.000000000000e+00
    2.400000000000e+00 0.000000000000e+00-1.536682248116e-08 3.600000000000e+01
    4.176000000000e+05 4.000000000000e+00
